start=new Date('2021-11-02T00:00:00.000Z').valueOf();
sats=[{"MEAN_MOTION":"15.06408730","NORAD_CAT_ID":"47866","INCLINATION":"53.0554","SITE":"AFETR","CLASSIFICATION_TYPE":"U","RA_OF_ASC_NODE":"204.8224","FILE":"3196819","OBJECT_NAME":"STARLINK-2320","OBJECT_TYPE":"PAYLOAD","EPOCH":"2021-11-01T17:00:52.365024","TLE_LINE2":"2 47866  53.0554 204.8224 0001753  67.3737 292.7437 15.06408730 36856","PERIOD":"95.592","REV_AT_EPOCH":"3685","TIME_SYSTEM":"UTC","TLE_LINE1":"1 47866U 21021G   21305.70893941  .00001261  00000-0  10349-3 0  9999","SEMIMAJOR_AXIS":"6925.322","CENTER_NAME":"EARTH","MEAN_ANOMALY":"292.7437","OBJECT_ID":"2021-021G","PERIAPSIS":"545.973","REF_FRAME":"TEME","LAUNCH_DATE":"2021-03-14","COUNTRY_CODE":"US","MEAN_ELEMENT_THEORY":"SGP4","DECAY_DATE":null,"ARG_OF_PERICENTER":"67.3737","EPHEMERIS_TYPE":"0","GP_ID":"188693859","APOAPSIS":"548.401","BSTAR":"0.00010349000000","RCS_SIZE":"LARGE","MEAN_MOTION_DOT":"0.00001261","ECCENTRICITY":"0.00017530","ELEMENT_SET_NO":"999","MEAN_MOTION_DDOT":"0.0000000000000"},{"INCLINATION":"53.0542","CLASSIFICATION_TYPE":"U","SITE":"AFETR","MEAN_MOTION":"15.06400209","NORAD_CAT_ID":"47867","FILE":"3196819","OBJECT_TYPE":"PAYLOAD","OBJECT_NAME":"STARLINK-2321","RA_OF_ASC_NODE":"194.8486","TLE_LINE2":"2 47867  53.0542 194.8486 0001706  59.6975 300.4183 15.06400209 36799","REV_AT_EPOCH":"3679","PERIOD":"95.592","EPOCH":"2021-11-01T16:51:36.186624","LAUNCH_DATE":"2021-03-14","TLE_LINE1":"1 47867U 21021H   21305.70250216  .00003785  00000-0  27288-3 0  9995","CENTER_NAME":"EARTH","SEMIMAJOR_AXIS":"6925.348","TIME_SYSTEM":"UTC","REF_FRAME":"TEME","PERIAPSIS":"546.031","OBJECT_ID":"2021-021H","MEAN_ANOMALY":"300.4183","ARG_OF_PERICENTER":"59.6975","DECAY_DATE":null,"MEAN_ELEMENT_THEORY":"SGP4","COUNTRY_CODE":"US","GP_ID":"188694109","APOAPSIS":"548.394","EPHEMERIS_TYPE":"0","MEAN_MOTION_DOT":"0.00003785","ECCENTRICITY":"0.00017060","RCS_SIZE":"LARGE","BSTAR":"0.00027288000000","MEAN_MOTION_DDOT":"0.0000000000000","ELEMENT_SET_NO":"999"},{"EPOCH":"2021-11-01T20:18:30.373632","TLE_LINE2":"2 47868  53.0436 145.7460 0001721  68.3998 291.7187 15.37153630 37545","PERIOD":"93.680","REV_AT_EPOCH":"3754","TIME_SYSTEM":"UTC","TLE_LINE1":"1 47868U 21021J   21305.84618488 -.00464058  00000-0 -13347-1 0  9995","SEMIMAJOR_AXIS":"6832.668","CENTER_NAME":"EARTH","MEAN_ANOMALY":"291.7187","OBJECT_ID":"2021-021J","REF_FRAME":"TEME","PERIAPSIS":"453.357","LAUNCH_DATE":"2021-03-14","MEAN_MOTION":"15.37153630","NORAD_CAT_ID":"47868","INCLINATION":"53.0436","SITE":"AFETR","CLASSIFICATION_TYPE":"U","RA_OF_ASC_NODE":"145.7460","FILE":"3196819","OBJECT_NAME":"STARLINK-2323","OBJECT_TYPE":"PAYLOAD","BSTAR":"-0.01334700000000","RCS_SIZE":"LARGE","MEAN_MOTION_DOT":"-0.00464058","ECCENTRICITY":"0.00017210","ELEMENT_SET_NO":"999","MEAN_MOTION_DDOT":"0.0000000000000","COUNTRY_CODE":"US","DECAY_DATE":null,"MEAN_ELEMENT_THEORY":"SGP4","ARG_OF_PERICENTER":"68.3998","EPHEMERIS_TYPE":"0","GP_ID":"188695361","APOAPSIS":"455.709"},{"MEAN_MOTION_DDOT":"0.0000000000000","ELEMENT_SET_NO":"999","MEAN_MOTION_DOT":"0.00001747","ECCENTRICITY":"0.00016540","RCS_SIZE":"LARGE","BSTAR":"0.00013613000000","GP_ID":"188695111","APOAPSIS":"548.352","EPHEMERIS_TYPE":"0","ARG_OF_PERICENTER":"68.2226","MEAN_ELEMENT_THEORY":"SGP4","DECAY_DATE":null,"COUNTRY_CODE":"US","LAUNCH_DATE":"2021-03-14","TLE_LINE1":"1 47869U 21021K   21305.69880797  .00001747  00000-0  13613-3 0  9991","CENTER_NAME":"EARTH","SEMIMAJOR_AXIS":"6925.341","TIME_SYSTEM":"UTC","REF_FRAME":"TEME","PERIAPSIS":"546.061","OBJECT_ID":"2021-021K","MEAN_ANOMALY":"291.8938","TLE_LINE2":"2 47869  53.0559 194.8747 0001654  68.2226 291.8938 15.06402316 36945","REV_AT_EPOCH":"3694","PERIOD":"95.592","EPOCH":"2021-11-01T16:46:17.008608","FILE":"3196819","OBJECT_TYPE":"PAYLOAD","OBJECT_NAME":"STARLINK-2324","RA_OF_ASC_NODE":"194.8747","INCLINATION":"53.0559","CLASSIFICATION_TYPE":"U","SITE":"AFETR","MEAN_MOTION":"15.06402316","NORAD_CAT_ID":"47869"},{"DECAY_DATE":null,"MEAN_ELEMENT_THEORY":"SGP4","ARG_OF_PERICENTER":"7.8798","COUNTRY_CODE":"US","GP_ID":"188694360","APOAPSIS":"549.056","EPHEMERIS_TYPE":"0","MEAN_MOTION_DOT":"0.00053026","ECCENTRICITY":"0.00012950","BSTAR":"0.00358170000000","RCS_SIZE":"MEDIUM","MEAN_MOTION_DDOT":"0.0000000000000","ELEMENT_SET_NO":"999","INCLINATION":"53.0564","SITE":"AFETR","CLASSIFICATION_TYPE":"U","MEAN_MOTION":"15.06091508","NORAD_CAT_ID":"47870","FILE":"3196819","OBJECT_NAME":"STARLINK-2326","OBJECT_TYPE":"PAYLOAD","RA_OF_ASC_NODE":"219.5842","TLE_LINE2":"2 47870  53.0564 219.5842 0001295   7.8798 352.2211 15.06091508 36390","PERIOD":"95.612","REV_AT_EPOCH":"3639","EPOCH":"2021-11-01T18:47:39.275808","LAUNCH_DATE":"2021-03-14","SEMIMAJOR_AXIS":"6926.294","TLE_LINE1":"1 47870U 21021L   21305.78309347  .00053026  00000-0  35817-2 0  9996","TIME_SYSTEM":"UTC","CENTER_NAME":"EARTH","MEAN_ANOMALY":"352.2211","OBJECT_ID":"2021-021L","PERIAPSIS":"547.262","REF_FRAME":"TEME"},{"NORAD_CAT_ID":"47871","MEAN_MOTION":"15.06404416","SITE":"AFETR","CLASSIFICATION_TYPE":"U","INCLINATION":"53.0560","RA_OF_ASC_NODE":"194.8900","OBJECT_NAME":"STARLINK-2327","OBJECT_TYPE":"PAYLOAD","FILE":"3196819","EPOCH":"2021-11-01T16:40:57.929952","PERIOD":"95.592","REV_AT_EPOCH":"3683","TLE_LINE2":"2 47871  53.0560 194.8900 0001628  82.6071 277.5103 15.06404416 36836","OBJECT_ID":"2021-021M","MEAN_ANOMALY":"277.5103","PERIAPSIS":"546.073","REF_FRAME":"TEME","TLE_LINE1":"1 47871U 21021M   21305.69511493  .00002367  00000-0  17775-3 0  9990","SEMIMAJOR_AXIS":"6925.335","CENTER_NAME":"EARTH","TIME_SYSTEM":"UTC","LAUNCH_DATE":"2021-03-14","COUNTRY_CODE":"US","DECAY_DATE":null,"MEAN_ELEMENT_THEORY":"SGP4","ARG_OF_PERICENTER":"82.6071","EPHEMERIS_TYPE":"0","APOAPSIS":"548.327","GP_ID":"188694610","BSTAR":"0.00017775000000","RCS_SIZE":"LARGE","ECCENTRICITY":"0.00016280","MEAN_MOTION_DOT":"0.00002367","ELEMENT_SET_NO":"999","MEAN_MOTION_DDOT":"0.0000000000000"},{"ELEMENT_SET_NO":"999","MEAN_MOTION_DDOT":"0.0000000000000","RCS_SIZE":"LARGE","BSTAR":"-0.00017164000000","ECCENTRICITY":"0.00014700","MEAN_MOTION_DOT":"-0.00002802","EPHEMERIS_TYPE":"0","APOAPSIS":"549.750","GP_ID":"188694861","COUNTRY_CODE":"US","ARG_OF_PERICENTER":"138.2593","DECAY_DATE":null,"MEAN_ELEMENT_THEORY":"SGP4","PERIAPSIS":"547.714","REF_FRAME":"TEME","MEAN_ANOMALY":"221.8508","OBJECT_ID":"2021-021N","SEMIMAJOR_AXIS":"6926.867","TLE_LINE1":"1 47872U 21021N   21305.88555161 -.00002802  00000-0 -17164-3 0  9990","TIME_SYSTEM":"UTC","CENTER_NAME":"EARTH","LAUNCH_DATE":"2021-03-14","EPOCH":"2021-11-01T21:15:11.659104","REV_AT_EPOCH":"3743","PERIOD":"95.624","TLE_LINE2":"2 47872  53.0646 153.8936 0001470 138.2593 221.8508 15.05904702 37438","RA_OF_ASC_NODE":"153.8936","OBJECT_TYPE":"PAYLOAD","OBJECT_NAME":"STARLINK-2328","FILE":"3196819","NORAD_CAT_ID":"47872","MEAN_MOTION":"15.05904702","CLASSIFICATION_TYPE":"U","SITE":"AFETR","INCLINATION":"53.0646"},{"ARG_OF_PERICENTER":"66.7607","DECAY_DATE":null,"MEAN_ELEMENT_THEORY":"SGP4","COUNTRY_CODE":"US","APOAPSIS":"548.397","GP_ID":"188660826","EPHEMERIS_TYPE":"0","ECCENTRICITY":"0.00016970","MEAN_MOTION_DOT":"-0.00000046","RCS_SIZE":"LARGE","BSTAR":"0.00001581000000","MEAN_MOTION_DDOT":"0.0000000000000","ELEMENT_SET_NO":"999","CLASSIFICATION_TYPE":"U","SITE":"AFETR","INCLINATION":"53.0515","NORAD_CAT_ID":"47873","MEAN_MOTION":"15.06397267","OBJECT_TYPE":"PAYLOAD","OBJECT_NAME":"STARLINK-2329","FILE":"3196301","RA_OF_ASC_NODE":"196.1698","PERIOD":"95.592","REV_AT_EPOCH":"3678","TLE_LINE2":"2 47873  53.0515 196.1698 0001697  66.7607 293.3561 15.06397267 36784","EPOCH":"2021-11-01T09:52:16.931712","LAUNCH_DATE":"2021-03-14","PERIAPSIS":"546.047","REF_FRAME":"TEME","MEAN_ANOMALY":"293.3561","OBJECT_ID":"2021-021P","TLE_LINE1":"1 47873U 21021P   21305.41130708 -.00000046  00000-0  15810-4 0  9990","CENTER_NAME":"EARTH","SEMIMAJOR_AXIS":"6925.357","TIME_SYSTEM":"UTC"},{"MEAN_MOTION":"15.11409514","NORAD_CAT_ID":"47874","INCLINATION":"53.0410","SITE":"AFETR","CLASSIFICATION_TYPE":"U","RA_OF_ASC_NODE":"150.6205","FILE":"3196631","OBJECT_NAME":"STARLINK-2330","OBJECT_TYPE":"PAYLOAD","EPOCH":"2021-11-01T13:19:40.949184","TLE_LINE2":"2 47874  53.0410 150.6205 0002688 104.5208 255.6082 15.11409514 36961","REV_AT_EPOCH":"3696","PERIOD":"95.275","TLE_LINE1":"1 47874U 21021Q   21305.55533506 -.00280520  00000-0 -17050-1 0  9992","TIME_SYSTEM":"UTC","SEMIMAJOR_AXIS":"6910.038","CENTER_NAME":"EARTH","OBJECT_ID":"2021-021Q","MEAN_ANOMALY":"255.6082","REF_FRAME":"TEME","PERIAPSIS":"530.045","LAUNCH_DATE":"2021-03-14","COUNTRY_CODE":"US","MEAN_ELEMENT_THEORY":"SGP4","DECAY_DATE":null,"ARG_OF_PERICENTER":"104.5208","EPHEMERIS_TYPE":"0","GP_ID":"188668400","APOAPSIS":"533.760","BSTAR":"-0.01705000000000","RCS_SIZE":"LARGE","MEAN_MOTION_DOT":"-0.00280520","ECCENTRICITY":"0.00026880","ELEMENT_SET_NO":"999","MEAN_MOTION_DDOT":"0.0000000000000"},{"RCS_SIZE":"LARGE","BSTAR":"0.00004099000000","MEAN_MOTION_DOT":"0.00000329","ECCENTRICITY":"0.00016230","ELEMENT_SET_NO":"999","MEAN_MOTION_DDOT":"0.0000000000000","COUNTRY_CODE":"US","ARG_OF_PERICENTER":"78.5503","MEAN_ELEMENT_THEORY":"SGP4","DECAY_DATE":null,"EPHEMERIS_TYPE":"0","GP_ID":"188694110","APOAPSIS":"548.350","EPOCH":"2021-11-01T17:38:02.292864","TLE_LINE2":"2 47875  53.0536 204.7033 0001623  78.5503 281.5668 15.06396073 36751","REV_AT_EPOCH":"3675","PERIOD":"95.592","TLE_LINE1":"1 47875U 21021R   21305.73474876  .00000329  00000-0  40990-4 0  9994","SEMIMAJOR_AXIS":"6925.361","TIME_SYSTEM":"UTC","CENTER_NAME":"EARTH","PERIAPSIS":"546.102","REF_FRAME":"TEME","OBJECT_ID":"2021-021R","MEAN_ANOMALY":"281.5668","LAUNCH_DATE":"2021-03-14","MEAN_MOTION":"15.06396073","NORAD_CAT_ID":"47875","INCLINATION":"53.0536","CLASSIFICATION_TYPE":"U","SITE":"AFETR","RA_OF_ASC_NODE":"204.7033","FILE":"3196819","OBJECT_TYPE":"PAYLOAD","OBJECT_NAME":"STARLINK-2331"}];
